[{"OBJECT_NAME":"SHIYAN-6 01 (SY-6 01)","OBJECT_ID":"2018-094B","EPOCH":"2026-03-09T23:04:36.967872","MEAN_MOTION":15.28649156,"ECCENTRICITY":0.00144834,"INCLINATION":97.3669,"RA_OF_ASC_NODE":84.0964,"ARG_OF_PERICENTER":135.6758,"MEAN_ANOMALY":224.5644,"EPHEMERIS_TYPE":0,"CLASSIFICATION_TYPE":"U","NORAD_CAT_ID":43711,"ELEMENT_SET_NO":999,"REV_AT_EPOCH":40632,"BSTAR":0.00024768444,"MEAN_MOTION_DOT":6.847e-5,"MEAN_MOTION_DDOT":0},{"OBJECT_NAME":"STARLINK-32363","OBJECT_ID":"2024-193T","EPOCH":"2026-03-09T10:41:14.894592","MEAN_MOTION":15.30190023,"ECCENTRICITY":0.00012755,"INCLINATION":53.1608,"RA_OF_ASC_NODE":91.8252,"ARG_OF_PERICENTER":89.8834,"MEAN_ANOMALY":270.2313,"EPHEMERIS_TYPE":0,"CLASSIFICATION_TYPE":"U","NORAD_CAT_ID":61678,"ELEMENT_SET_NO":999,"REV_AT_EPOCH":7649,"BSTAR":1.6649099e-5,"MEAN_MOTION_DOT":1.34e-6,"MEAN_MOTION_DDOT":0}]
